start=new Date('2022-10-30T00:00:00.000Z').valueOf();
sats=[{"PERIOD":"95.592","CENTER_NAME":"EARTH","ARG_OF_PERICENTER":"73.0289","MEAN_ELEMENT_THEORY":"SGP4","NORAD_CAT_ID":"46065","REV_AT_EPOCH":"12438","REF_FRAME":"TEME","LAUNCH_DATE":"2020-08-07","MEAN_MOTION":"15.06397664","FILE":"3637863","OBJECT_TYPE":"PAYLOAD","GP_ID":"216474551","TLE_LINE2":"2 46065  53.0549 203.9873 0001489  73.0289 287.0863 15.06397664124381","EPOCH":"2022-10-29T21:08:01.171104","MEAN_ANOMALY":"287.0863","APOAPSIS":"548.252","EPHEMERIS_TYPE":"0","SITE":"AFETR","ELEMENT_SET_NO":"999","SEMIMAJOR_AXIS":"6925.356","RA_OF_ASC_NODE":"203.9873","CLASSIFICATION_TYPE":"U","TIME_SYSTEM":"UTC","OBJECT_ID":"2020-055AQ","BSTAR":"0.00027625000000","PERIAPSIS":"546.190","RCS_SIZE":"LARGE","INCLINATION":"53.0549","COUNTRY_CODE":"US","DECAY_DATE":null,"ECCENTRICITY":"0.00014890","TLE_LINE1":"1 46065U 20055AQ  22302.88056911  .00003835  00000-0  27625-3 0  9994","MEAN_MOTION_DDOT":"0.0000000000000","MEAN_MOTION_DOT":"0.00003835","OBJECT_NAME":"STARLINK-1515"},{"PERIOD":"95.592","CENTER_NAME":"EARTH","ARG_OF_PERICENTER":"68.8164","MEAN_ELEMENT_THEORY":"SGP4","NORAD_CAT_ID":"46066","REV_AT_EPOCH":"12439","REF_FRAME":"TEME","MEAN_MOTION":"15.06404384","LAUNCH_DATE":"2020-08-07","FILE":"3637863","OBJECT_TYPE":"PAYLOAD","GP_ID":"216473321","EPOCH":"2022-10-29T21:14:41.129664","MEAN_ANOMALY":"291.2984","TLE_LINE2":"2 46066  53.0542 203.9690 0001493  68.8164 291.2984 15.06404384124391","APOAPSIS":"548.234","EPHEMERIS_TYPE":"0","SITE":"AFETR","ELEMENT_SET_NO":"999","SEMIMAJOR_AXIS":"6925.335","RA_OF_ASC_NODE":"203.9690","CLASSIFICATION_TYPE":"U","TIME_SYSTEM":"UTC","PERIAPSIS":"546.166","BSTAR":"-0.00001938700000","OBJECT_ID":"2020-055AR","INCLINATION":"53.0542","RCS_SIZE":"LARGE","COUNTRY_CODE":"US","DECAY_DATE":null,"TLE_LINE1":"1 46066U 20055AR  22302.88519826 -.00000570  00000-0 -19387-4 0  9996","ECCENTRICITY":"0.00014930","MEAN_MOTION_DDOT":"0.0000000000000","OBJECT_NAME":"STARLINK-1525","MEAN_MOTION_DOT":"-0.00000570"},{"BSTAR":"0.00028351000000","OBJECT_ID":"2020-055AS","PERIAPSIS":"546.089","RCS_SIZE":"LARGE","INCLINATION":"53.0534","CLASSIFICATION_TYPE":"U","TIME_SYSTEM":"UTC","MEAN_MOTION_DDOT":"0.0000000000000","MEAN_MOTION_DOT":"0.00003944","OBJECT_NAME":"STARLINK-1529","DECAY_DATE":null,"COUNTRY_CODE":"US","ECCENTRICITY":"0.00016240","TLE_LINE1":"1 46067U 20055AS  22302.88793537  .00003944  00000-0  28351-3 0  9996","TLE_LINE2":"2 46067  53.0534 203.9374 0001624  71.2424 288.8741 15.06400048124403","MEAN_ANOMALY":"288.8741","EPOCH":"2022-10-29T21:18:37.615968","APOAPSIS":"548.338","GP_ID":"216473571","ELEMENT_SET_NO":"999","SEMIMAJOR_AXIS":"6925.348","RA_OF_ASC_NODE":"203.9374","EPHEMERIS_TYPE":"0","SITE":"AFETR","LAUNCH_DATE":"2020-08-07","MEAN_MOTION":"15.06400048","REF_FRAME":"TEME","FILE":"3637863","OBJECT_TYPE":"PAYLOAD","CENTER_NAME":"EARTH","ARG_OF_PERICENTER":"71.2424","PERIOD":"95.592","NORAD_CAT_ID":"46067","REV_AT_EPOCH":"12440","MEAN_ELEMENT_THEORY":"SGP4"},{"SEMIMAJOR_AXIS":"6925.351","RA_OF_ASC_NODE":"204.7837","ELEMENT_SET_NO":"999","SITE":"AFETR","EPHEMERIS_TYPE":"0","APOAPSIS":"548.567","TLE_LINE2":"2 46068  53.0549 204.7837 0001950  51.1018 309.0144 15.06399163124375","MEAN_ANOMALY":"309.0144","EPOCH":"2022-10-29T16:47:55.889952","GP_ID":"216474821","MEAN_MOTION_DOT":"-0.00000209","OBJECT_NAME":"STARLINK-1532","MEAN_MOTION_DDOT":"0.0000000000000","ECCENTRICITY":"0.00019500","TLE_LINE1":"1 46068U 20055AT  22302.69995243 -.00000209  00000-0  48850-5 0  9994","DECAY_DATE":null,"COUNTRY_CODE":"US","RCS_SIZE":"LARGE","INCLINATION":"53.0549","OBJECT_ID":"2020-055AT","BSTAR":"0.00000488500000","PERIAPSIS":"545.866","TIME_SYSTEM":"UTC","CLASSIFICATION_TYPE":"U","REV_AT_EPOCH":"12437","NORAD_CAT_ID":"46068","MEAN_ELEMENT_THEORY":"SGP4","ARG_OF_PERICENTER":"51.1018","CENTER_NAME":"EARTH","PERIOD":"95.592","OBJECT_TYPE":"PAYLOAD","FILE":"3637863","LAUNCH_DATE":"2020-08-07","MEAN_MOTION":"15.06399163","REF_FRAME":"TEME"},{"PERIOD":"95.592","CENTER_NAME":"EARTH","ARG_OF_PERICENTER":"86.5529","MEAN_ELEMENT_THEORY":"SGP4","NORAD_CAT_ID":"46069","REV_AT_EPOCH":"12374","REF_FRAME":"TEME","LAUNCH_DATE":"2020-08-07","MEAN_MOTION":"15.06396203","FILE":"3637746","OBJECT_TYPE":"PAYLOAD","GP_ID":"216452717","TLE_LINE2":"2 46069  53.0547 207.7060 0001483  86.5529 273.5629 15.06396203123740","EPOCH":"2022-10-29T01:15:08.342496","MEAN_ANOMALY":"273.5629","APOAPSIS":"548.252","EPHEMERIS_TYPE":"0","SITE":"AFETR","ELEMENT_SET_NO":"999","SEMIMAJOR_AXIS":"6925.360","RA_OF_ASC_NODE":"207.7060","CLASSIFICATION_TYPE":"U","TIME_SYSTEM":"UTC","OBJECT_ID":"2020-055AU","BSTAR":"0.00003517400000","PERIAPSIS":"546.198","RCS_SIZE":"LARGE","INCLINATION":"53.0547","DECAY_DATE":null,"COUNTRY_CODE":"US","ECCENTRICITY":"0.00014830","TLE_LINE1":"1 46069U 20055AU  22302.05217989  .00000242  00000-0  35174-4 0  9999","MEAN_MOTION_DDOT":"0.0000000000000","MEAN_MOTION_DOT":"0.00000242","OBJECT_NAME":"STARLINK-1533"},{"GP_ID":"216473822","EPOCH":"2022-10-29T17:31:45.240672","MEAN_ANOMALY":"269.0389","TLE_LINE2":"2 46070  53.0534 204.6610 0001388  91.0759 269.0389 15.06405546124380","APOAPSIS":"548.158","EPHEMERIS_TYPE":"0","SITE":"AFETR","ELEMENT_SET_NO":"999","SEMIMAJOR_AXIS":"6925.332","RA_OF_ASC_NODE":"204.6610","CLASSIFICATION_TYPE":"U","TIME_SYSTEM":"UTC","PERIAPSIS":"546.235","OBJECT_ID":"2020-055AV","BSTAR":"0.00016459000000","INCLINATION":"53.0534","RCS_SIZE":"LARGE","COUNTRY_CODE":"US","DECAY_DATE":null,"TLE_LINE1":"1 46070U 20055AV  22302.73038473  .00002171  00000-0  16459-3 0  9992","ECCENTRICITY":"0.00013880","MEAN_MOTION_DDOT":"0.0000000000000","OBJECT_NAME":"STARLINK-1536","MEAN_MOTION_DOT":"0.00002171","PERIOD":"95.592","CENTER_NAME":"EARTH","ARG_OF_PERICENTER":"91.0759","MEAN_ELEMENT_THEORY":"SGP4","NORAD_CAT_ID":"46070","REV_AT_EPOCH":"12438","REF_FRAME":"TEME","MEAN_MOTION":"15.06405546","LAUNCH_DATE":"2020-08-07","FILE":"3637863","OBJECT_TYPE":"PAYLOAD"},{"GP_ID":"216474071","APOAPSIS":"548.311","TLE_LINE2":"2 46071  53.0545 203.9779 0001627  69.3901 290.7262 15.06409602124405","EPOCH":"2022-10-29T21:09:22.133088","MEAN_ANOMALY":"290.7262","SITE":"AFETR","EPHEMERIS_TYPE":"0","SEMIMAJOR_AXIS":"6925.319","RA_OF_ASC_NODE":"203.9779","ELEMENT_SET_NO":"999","TIME_SYSTEM":"UTC","CLASSIFICATION_TYPE":"U","RCS_SIZE":"LARGE","INCLINATION":"53.0545","OBJECT_ID":"2020-055AW","BSTAR":"0.00004704000000","PERIAPSIS":"546.057","ECCENTRICITY":"0.00016270","TLE_LINE1":"1 46071U 20055AW  22302.88150617  .00000419  00000-0  47040-4 0  9998","COUNTRY_CODE":"US","DECAY_DATE":null,"MEAN_MOTION_DOT":"0.00000419","OBJECT_NAME":"STARLINK-1538","MEAN_MOTION_DDOT":"0.0000000000000","PERIOD":"95.592","ARG_OF_PERICENTER":"69.3901","CENTER_NAME":"EARTH","MEAN_ELEMENT_THEORY":"SGP4","REV_AT_EPOCH":"12440","NORAD_CAT_ID":"46071","REF_FRAME":"TEME","LAUNCH_DATE":"2020-08-07","MEAN_MOTION":"15.06409602","OBJECT_TYPE":"PAYLOAD","FILE":"3637863"},{"FILE":"3637863","OBJECT_TYPE":"PAYLOAD","MEAN_MOTION":"15.06411146","LAUNCH_DATE":"2020-08-07","REF_FRAME":"TEME","NORAD_CAT_ID":"46072","REV_AT_EPOCH":"12438","MEAN_ELEMENT_THEORY":"SGP4","CENTER_NAME":"EARTH","ARG_OF_PERICENTER":"81.8031","PERIOD":"95.591","MEAN_MOTION_DDOT":"0.0000000000000","OBJECT_NAME":"STARLINK-1539","MEAN_MOTION_DOT":"0.00002991","COUNTRY_CODE":"US","DECAY_DATE":null,"TLE_LINE1":"1 46072U 20055AX  22302.84001770  .00002991  00000-0  21956-3 0  9994","ECCENTRICITY":"0.00011900","PERIAPSIS":"546.355","BSTAR":"0.00021956000000","OBJECT_ID":"2020-055AX","INCLINATION":"53.0523","RCS_SIZE":"LARGE","CLASSIFICATION_TYPE":"U","TIME_SYSTEM":"UTC","ELEMENT_SET_NO":"999","RA_OF_ASC_NODE":"204.1702","SEMIMAJOR_AXIS":"6925.314","EPHEMERIS_TYPE":"0","SITE":"AFETR","EPOCH":"2022-10-29T20:09:37.529280","MEAN_ANOMALY":"278.3092","TLE_LINE2":"2 46072  53.0523 204.1702 0001190  81.8031 278.3092 15.06411146124385","APOAPSIS":"548.004","GP_ID":"216474322"},{"OBJECT_TYPE":"PAYLOAD","FILE":"3637863","MEAN_MOTION":"15.06409803","LAUNCH_DATE":"2020-08-07","REF_FRAME":"TEME","REV_AT_EPOCH":"12433","NORAD_CAT_ID":"46073","MEAN_ELEMENT_THEORY":"SGP4","ARG_OF_PERICENTER":"64.1469","CENTER_NAME":"EARTH","PERIOD":"95.592","OBJECT_NAME":"STARLINK-1542","MEAN_MOTION_DOT":"-0.00000233","MEAN_MOTION_DDOT":"0.0000000000000","TLE_LINE1":"1 46073U 20055AY  22302.45762889 -.00000233  00000-0  32435-5 0  9991","ECCENTRICITY":"0.00017010","DECAY_DATE":null,"COUNTRY_CODE":"US","INCLINATION":"53.0545","RCS_SIZE":"LARGE","PERIAPSIS":"546.006","OBJECT_ID":"2020-055AY","BSTAR":"0.00000324350000","TIME_SYSTEM":"UTC","CLASSIFICATION_TYPE":"U","SEMIMAJOR_AXIS":"6925.319","RA_OF_ASC_NODE":"205.8791","ELEMENT_SET_NO":"999","SITE":"AFETR","EPHEMERIS_TYPE":"0","APOAPSIS":"548.362","MEAN_ANOMALY":"295.9695","EPOCH":"2022-10-29T10:58:59.136096","TLE_LINE2":"2 46073  53.0545 205.8791 0001701  64.1469 295.9695 15.06409803124339","GP_ID":"216474552"},{"PERIAPSIS":"546.255","BSTAR":"0.00002090000000","OBJECT_ID":"2020-055AZ","INCLINATION":"53.0553","RCS_SIZE":"LARGE","CLASSIFICATION_TYPE":"U","TIME_SYSTEM":"UTC","MEAN_MOTION_DDOT":"0.0000000000000","OBJECT_NAME":"STARLINK-1549","MEAN_MOTION_DOT":"0.00000030","DECAY_DATE":null,"COUNTRY_CODE":"US","TLE_LINE1":"1 46074U 20055AZ  22302.77461835  .00000030  00000-0  20900-4 0  9991","ECCENTRICITY":"0.00013730","MEAN_ANOMALY":"270.6772","EPOCH":"2022-10-29T18:35:27.025440","TLE_LINE2":"2 46074  53.0553 204.4485 0001373  89.4374 270.6772 15.06402554124370","APOAPSIS":"548.157","GP_ID":"216473322","ELEMENT_SET_NO":"999","SEMIMAJOR_AXIS":"6925.341","RA_OF_ASC_NODE":"204.4485","EPHEMERIS_TYPE":"0","SITE":"AFETR","MEAN_MOTION":"15.06402554","LAUNCH_DATE":"2020-08-07","REF_FRAME":"TEME","FILE":"3637863","OBJECT_TYPE":"PAYLOAD","CENTER_NAME":"EARTH","ARG_OF_PERICENTER":"89.4374","PERIOD":"95.592","NORAD_CAT_ID":"46074","REV_AT_EPOCH":"12437","MEAN_ELEMENT_THEORY":"SGP4"}];
